[{"OBJECT_NAME":"OBJECT H","OBJECT_ID":"2025-055H","EPOCH":"2026-03-09T23:29:50.051328","MEAN_MOTION":15.30330066,"ECCENTRICITY":0.00075967,"INCLINATION":97.636,"RA_OF_ASC_NODE":211.9572,"ARG_OF_PERICENTER":140.4354,"MEAN_ANOMALY":219.7441,"EPHEMERIS_TYPE":0,"CLASSIFICATION_TYPE":"U","NORAD_CAT_ID":63298,"ELEMENT_SET_NO":999,"REV_AT_EPOCH":5423,"BSTAR":0.0015582864,"MEAN_MOTION_DOT":0.00045901,"MEAN_MOTION_DDOT":0},{"OBJECT_NAME":"STARLINK-36494","OBJECT_ID":"2026-002AC","EPOCH":"2026-03-09T23:37:36.798816","MEAN_MOTION":15.27602644,"ECCENTRICITY":0.00011543,"INCLINATION":42.9993,"RA_OF_ASC_NODE":323.625,"ARG_OF_PERICENTER":263.8982,"MEAN_ANOMALY":96.1738,"EPHEMERIS_TYPE":0,"CLASSIFICATION_TYPE":"U","NORAD_CAT_ID":67331,"ELEMENT_SET_NO":999,"REV_AT_EPOCH":1128,"BSTAR":0.0012146223,"MEAN_MOTION_DOT":0.00033336,"MEAN_MOTION_DDOT":0}]
